[{"OBJECT_NAME":"CONTINUUM-1","OBJECT_ID":"2023-001AN","EPOCH":"2026-03-09T23:17:35.458656","MEAN_MOTION":15.27981258,"ECCENTRICITY":0.00109493,"INCLINATION":97.3456,"RA_OF_ASC_NODE":133.3964,"ARG_OF_PERICENTER":60.1976,"MEAN_ANOMALY":300.0351,"EPHEMERIS_TYPE":0,"CLASSIFICATION_TYPE":"U","NORAD_CAT_ID":55045,"ELEMENT_SET_NO":999,"REV_AT_EPOCH":17709,"BSTAR":0.00052859897,"MEAN_MOTION_DOT":0.00014395,"MEAN_MOTION_DDOT":0},{"OBJECT_NAME":"STARLINK-36443","OBJECT_ID":"2026-005AD","EPOCH":"2026-03-09T12:36:39.531456","MEAN_MOTION":15.28415724,"ECCENTRICITY":0.00022913,"INCLINATION":42.9998,"RA_OF_ASC_NODE":238.7026,"ARG_OF_PERICENTER":266.798,"MEAN_ANOMALY":93.261,"EPHEMERIS_TYPE":0,"CLASSIFICATION_TYPE":"U","NORAD_CAT_ID":67431,"ELEMENT_SET_NO":999,"REV_AT_EPOCH":867,"BSTAR":0.001062734,"MEAN_MOTION_DOT":0.00029859,"MEAN_MOTION_DDOT":0}]
